STARLINK-30822          
1 58193U 23167U   26068.56274316  .00001074  00000+0  49710-4 0  9997
2 58193  43.0017 144.2908 0000495 333.5405  26.5421 15.26729916130969
TEVEL2-8                
1 63239U 25052AF  26068.66815442  .00019130  00000+0  69304-3 0  9993
2 63239  97.4055 324.2923 0008031 124.9191 235.2804 15.28392908 54807
